LEMUR-2-VALHALLA        
1 58900U 24022B   26192.57078803  .00009571  00000+0  23837-3 0  9997
2 58900  97.4090  42.8658 0009603  36.1879 324.0015 15.40414713136025
LEMUR-2-CAEL            
1 58903U 24022E   26192.88410592  .00010558  00000+0  25129-3 0  9992
2 58903  97.4069  44.1632 0007502  20.9178 339.2374 15.41781263136147
LEMUR-2-JOHNNYTRUONG    
1 59146U 24043BA  26192.88763129  .00026304  00000+0  29809-3 0  9997
2 59146  97.5383 346.1580 0004233 102.8607 257.3124 15.62371951131891
LEMUR-2-TOMATOKECHUP    
1 60471U 24149D   26192.79324289  .00006490  00000+0  18430-3 0  9999
2 60471  97.3803 274.9096 0003122 128.0995 232.0531 15.36537067105947
LEMUR-2-STELLA          
1 60533U 24149BT  26192.76554195  .00006496  00000+0  37867-3 0  9997
2 60533  97.6740 275.3352 0001184 113.7387 246.3968 15.12328256104214
LEMUR-2-MARHISYAM       
1 60536U 24149BW  26192.75511137  .00005773  00000+0  34254-3 0  9992
2 60536  97.6885 275.7985 0002821  75.4227 284.7316 15.11737522104198
LEMUR-2-AHMED-ASRAR     
1 60576U 24149DN  26192.76508708  .00006643  00000+0  37730-3 0  9996
2 60576  97.7007 277.9980 0000771 214.4074 145.7107 15.13261688104286
LEMUR-2-LLOYD           
1 60577U 24149DP  26192.17190217  .00006469  00000+0  40523-3 0  9994
2 60577  97.6747 273.3196 0004734  80.8597 279.3167 15.09703583104015
LEMUR-2-SQUIRRELCOMM    
1 60578U 24149DQ  26189.03451372  .00003681  00000+0  24740-3 0  9994
2 60578  97.6707 269.8822 0004746 354.4134   5.7039 15.07397331103542
LEMUR-2-SIERRINI        
1 60579U 24149DR  26191.98895868  .00007045  00000+0  42017-3 0  9999
2 60579  97.6838 274.6929 0006379 101.6319 258.5628 15.11454053104050
LEMUR-2-WILSON          
1 62694U 25009CP  26192.72206181  .00000681  00000+0  67005-4 0  9996
2 62694  97.7027 270.7566 0002281 344.0726  16.0423 14.95271639 81027
LEMUR-2-STAR-FOX        
1 62696U 25009CR  26192.79771790  .00003441  00000+0  26155-3 0  9995
2 62696  97.6921 274.2306 0002706  55.6079 304.5401 15.02816191 81253
LEMUR-2-ARIANNA         
1 62699U 25009CU  26192.79618634  .00003632  00000+0  27574-3 0  9993
2 62699  97.6857 273.9837 0002952  61.1158 299.0362 15.02817181 81256
LEMUR-2-ALISIA          
1 62706U 25009DB  26192.76929690  .00004825  00000+0  36172-3 0  9995
2 62706  97.6972 274.7746 0003840 139.3909 220.7603 15.03143055103853
LEMUR-2-ROUNDTRIPPER    
1 62711U 25009DG  26192.77689072  .00005456  00000+0  39714-3 0  9995
2 62711  97.7246 275.4244 0004378  71.1982 288.9719 15.04195859 81327
LEMUR-2-MYNAMEISJEFF    
1 62712U 25009DH  26192.77535732  .00005347  00000+0  38945-3 0  9993
2 62712  97.7298 275.8188 0003769 105.2846 254.8796 15.04187846 81321
